{
  "norad_id": 63466,
  "name": "STARLINK-33654",
  "history": [
    {
      "epoch": "2026-03-28T04:14:04.402176",
      "apogee_km": 483.52552347123947,
      "perigee_km": 482.4625970473853,
      "latitude_deg": 37.971824244514416,
      "longitude_deg": -176.46177535993047,
      "semi_major_axis_km": 6861.131060259312,
      "eccentricity": 7.746e-05,
      "inclination_deg": 42.9999,
      "raan_deg": 155.4053,
      "arg_perigee_deg": 246.8658,
      "mean_anomaly_deg": 113.2112,
      "mean_motion_rev_day": 15.2759838
    }
  ]
}